{
  "type": "FeatureCollection",
  "features": [
    {
      "type": "Feature",
      "properties": {
        "norad_id": 41860,
        "name": "GSAT0212 (GALILEO 16)",
        "group": "galileo",
        "lat": -55.35855209040914,
        "lon": 19.161500274430306,
        "alt_km": 23230.227245254773,
        "timestamp": "2025-12-18T08:58:43.674218+00:00",
        "meta_object_name": "GSAT0212 (GALILEO 16)",
        "meta_object_id": "2016-069B",
        "meta_epoch": "2025-12-17T08:16:27.265728",
        "meta_mean_motion": 1.70474701,
        "meta_eccentricity": 0.00020752,
        "meta_inclination": 55.3825,
        "meta_ra_of_asc_node": 106.1181,
        "meta_arg_of_pericenter": 22.8873,
        "meta_mean_anomaly": 337.0809,
        "meta_ephemeris_type": 0,
        "meta_classification_type": "U",
        "meta_norad_cat_id": 41860,
        "meta_element_set_no": 999,
        "meta_rev_at_epoch": 5655,
        "meta_bstar": 0,
        "meta_mean_motion_dot": -9e-08,
        "meta_mean_motion_ddot": 0,
        "tle_line1": "1 41860U 16069B   25351.34476002 -.00000009  00000+0  00000+0 0  9991",
        "tle_line2": "2 41860  55.3825 106.1181 0002075  22.8873 337.0809  1.70474701 56553"
      },
      "geometry": {
        "type": "Point",
        "coordinates": [
          19.161500274430306,
          -55.35855209040914
        ]
      }
    },
    {
      "type": "Feature",
      "properties": {
        "norad_id": 41861,
        "name": "GSAT0213 (GALILEO 17)",
        "group": "galileo",
        "lat": 36.427025390264575,
        "lon": 136.69139678106492,
        "alt_km": 23221.878401504804,
        "timestamp": "2025-12-18T08:58:43.674230+00:00",
        "meta_object_name": "GSAT0213 (GALILEO 17)",
        "meta_object_id": "2016-069C",
        "meta_epoch": "2025-12-17T17:05:43.808640",
        "meta_mean_motion": 1.70474957,
        "meta_eccentricity": 0.00025722,
        "meta_inclination": 55.385,
        "meta_ra_of_asc_node": 106.1156,
        "meta_arg_of_pericenter": 282.262,
        "meta_mean_anomaly": 77.6683,
        "meta_ephemeris_type": 0,
        "meta_classification_type": "U",
        "meta_norad_cat_id": 41861,
        "meta_element_set_no": 999,
        "meta_rev_at_epoch": 5642,
        "meta_bstar": 0,
        "meta_mean_motion_dot": -9e-08,
        "meta_mean_motion_ddot": 0,
        "tle_line1": "1 41861U 16069C   25351.71231260 -.00000009  00000+0  00000+0 0  9998",
        "tle_line2": "2 41861  55.3850 106.1156 0002572 282.2620  77.6683  1.70474957 56424"
      },
      "geometry": {
        "type": "Point",
        "coordinates": [
          136.69139678106492,
          36.427025390264575
        ]
      }
    },
    {
      "type": "Feature",
      "properties": {
        "norad_id": 41862,
        "name": "GSAT0214 (GALILEO 18)",
        "group": "galileo",
        "lat": -34.47250960830253,
        "lon": 77.80596197493901,
        "alt_km": 23222.57310419431,
        "timestamp": "2025-12-18T08:58:43.674241+00:00",
        "meta_object_name": "GSAT0214 (GALILEO 18)",
        "meta_object_id": "2016-069D",
        "meta_epoch": "2025-12-14T22:12:36.299232",
        "meta_mean_motion": 1.70474813,
        "meta_eccentricity": 0.00014239,
        "meta_inclination": 55.3815,
        "meta_ra_of_asc_node": 106.1855,
        "meta_arg_of_pericenter": 290.4821,
        "meta_mean_anomaly": 69.4663,
        "meta_ephemeris_type": 0,
        "meta_classification_type": "U",
        "meta_norad_cat_id": 41862,
        "meta_element_set_no": 999,
        "meta_rev_at_epoch": 5650,
        "meta_bstar": 0,
        "meta_mean_motion_dot": -6e-08,
        "meta_mean_motion_ddot": 0,
        "tle_line1": "1 41862U 16069D   25348.92542013 -.00000006  00000+0  00000+0 0  9996",
        "tle_line2": "2 41862  55.3815 106.1855 0001423 290.4821  69.4663  1.70474813 56507"
      },
      "geometry": {
        "type": "Point",
        "coordinates": [
          77.80596197493901,
          -34.47250960830253
        ]
      }
    },
    {
      "type": "Feature",
      "properties": {
        "norad_id": 43055,
        "name": "GSAT0215 (GALILEO 19)",
        "group": "galileo",
        "lat": 12.817755475792598,
        "lon": -124.3838203644381,
        "alt_km": 23217.67434684729,
        "timestamp": "2025-12-18T08:58:43.674252+00:00",
        "meta_object_name": "GSAT0215 (GALILEO 19)",
        "meta_object_id": "2017-079A",
        "meta_epoch": "2025-12-17T04:12:33.509376",
        "meta_mean_motion": 1.70474116,
        "meta_eccentricity": 0.00012477,
        "meta_inclination": 55.1286,
        "meta_ra_of_asc_node": 226.5156,
        "meta_arg_of_pericenter": 341.6592,
        "meta_mean_anomaly": 18.4365,
        "meta_ephemeris_type": 0,
        "meta_classification_type": "U",
        "meta_norad_cat_id": 43055,
        "meta_element_set_no": 999,
        "meta_rev_at_epoch": 4988,
        "meta_bstar": 0,
        "meta_mean_motion_dot": 5.5e-07,
        "meta_mean_motion_ddot": 0,
        "tle_line1": "1 43055U 17079A   25351.17538784  .00000055  00000+0  00000+0 0  9998",
        "tle_line2": "2 43055  55.1286 226.5156 0001247 341.6592  18.4365  1.70474116 49884"
      },
      "geometry": {
        "type": "Point",
        "coordinates": [
          -124.3838203644381,
          12.817755475792598
        ]
      }
    },
    {
      "type": "Feature",
      "properties": {
        "norad_id": 43056,
        "name": "GSAT0216 (GALILEO 20)",
        "group": "galileo",
        "lat": -13.816909707522637,
        "lon": 56.36135856161027,
        "alt_km": 23228.326232038537,
        "timestamp": "2025-12-18T08:58:43.674263+00:00",
        "meta_object_name": "GSAT0216 (GALILEO 20)",
        "meta_object_id": "2017-079B",
        "meta_epoch": "2025-12-16T21:07:19.515072",
        "meta_mean_motion": 1.70474167,
        "meta_eccentricity": 0.00024195,
        "meta_inclination": 55.129,
        "meta_ra_of_asc_node": 226.5236,
        "meta_arg_of_pericenter": 322.2527,
        "meta_mean_anomaly": 37.829,
        "meta_ephemeris_type": 0,
        "meta_classification_type": "U",
        "meta_norad_cat_id": 43056,
        "meta_element_set_no": 999,
        "meta_rev_at_epoch": 4989,
        "meta_bstar": 0,
        "meta_mean_motion_dot": 5.3e-07,
        "meta_mean_motion_ddot": 0,
        "tle_line1": "1 43056U 17079B   25350.88008698  .00000053  00000+0  00000+0 0  9990",
        "tle_line2": "2 43056  55.1290 226.5236 0002419 322.2527  37.8290  1.70474167 49893"
      },
      "geometry": {
        "type": "Point",
        "coordinates": [
          56.36135856161027,
          -13.816909707522637
        ]
      }
    },
    {
      "type": "Feature",
      "properties": {
        "norad_id": 43057,
        "name": "GSAT0217 (GALILEO 21)",
        "group": "galileo",
        "lat": 46.13523097890451,
        "lon": -87.03902260163255,
        "alt_km": 23214.414016309085,
        "timestamp": "2025-12-18T08:58:43.674274+00:00",
        "meta_object_name": "GSAT0217 (GALILEO 21)",
        "meta_object_id": "2017-079C",
        "meta_epoch": "2025-12-16T12:20:28.313376",
        "meta_mean_motion": 1.70474073,
        "meta_eccentricity": 0.00027918,
        "meta_inclination": 55.1271,
        "meta_ra_of_asc_node": 226.5317,
        "meta_arg_of_pericenter": 347.0782,
        "meta_mean_anomaly": 13.0112,
        "meta_ephemeris_type": 0,
        "meta_classification_type": "U",
        "meta_norad_cat_id": 43057,
        "meta_element_set_no": 999,
        "meta_rev_at_epoch": 4987,
        "meta_bstar": 0,
        "meta_mean_motion_dot": 5e-07,
        "meta_mean_motion_ddot": 0,
        "tle_line1": "1 43057U 17079C   25350.51421659  .00000050  00000+0  00000+0 0  9994",
        "tle_line2": "2 43057  55.1271 226.5317 0002791 347.0782  13.0112  1.70474073 49877"
      },
      "geometry": {
        "type": "Point",
        "coordinates": [
          -87.03902260163255,
          46.13523097890451
        ]
      }
    },
    {
      "type": "Feature",
      "properties": {
        "norad_id": 43058,
        "name": "GSAT0218 (GALILEO 22)",
        "group": "galileo",
        "lat": -51.91615121678823,
        "lon": 163.71846671080533,
        "alt_km": 23219.991071317054,
        "timestamp": "2025-12-18T08:58:43.674285+00:00",
        "meta_object_name": "GSAT0218 (GALILEO 22)",
        "meta_object_id": "2017-079D",
        "meta_epoch": "2025-12-12T15:04:31.769472",
        "meta_mean_motion": 1.70474063,
        "meta_eccentricity": 0.00028411,
        "meta_inclination": 55.1287,
        "meta_ra_of_asc_node": 226.6365,
        "meta_arg_of_pericenter": 306.3289,
        "meta_mean_anomaly": 53.7237,
        "meta_ephemeris_type": 0,
        "meta_classification_type": "U",
        "meta_norad_cat_id": 43058,
        "meta_element_set_no": 999,
        "meta_rev_at_epoch": 4983,
        "meta_bstar": 0,
        "meta_mean_motion_dot": 1.7e-07,
        "meta_mean_motion_ddot": 0,
        "tle_line1": "1 43058U 17079D   25346.62814548  .00000017  00000+0  00000+0 0  9998",
        "tle_line2": "2 43058  55.1287 226.6365 0002841 306.3289  53.7237  1.70474063 49839"
      },
      "geometry": {
        "type": "Point",
        "coordinates": [
          163.71846671080533,
          -51.91615121678823
        ]
      }
    }
  ]
}